KUIPER-00532            
1 69604U 26140N   26183.25003472  .00081931  00000+0  22515-2 0  9999
2 69604  51.8794 326.0185 0005301 347.8217 201.5613 15.36486825  3488
KUIPER-00533            
1 69605U 26140P   26182.81210251  .00036263  00000+0  95831-3 0  9996
2 69605  51.8792 327.9826 0006982 275.1701  84.8489 15.38059309  3484
KUIPER-00534            
1 69606U 26140Q   26183.12137849  .00056745  00000+0  14665-2 0  9995
2 69606  51.8845 326.3126 0014013 217.2174 142.7844 15.38470182  3536
KUIPER-00537            
1 69607U 26140R   26183.09215520 -.00067566  00000+0 -19331-2 0  9995
2 69607  51.8815 326.8593 0009220   7.2207 352.8910 15.35484432  3522
KUIPER-00538            
1 69608U 26140S   26182.81799667  .00034398  00000+0  92807-3 0  9999
2 69608  51.8831 328.0232 0005358 291.0772  68.9641 15.37453513  3482
KUIPER-00540            
1 69609U 26140T   26182.82377223  .00031469  00000+0  86617-3 0  9999
2 69609  51.8810 328.0654 0005885 332.8128  27.2550 15.36876077  3482
KUIPER-00541            
1 69610U 26140U   26182.81285722  .00033193  00000+0  87847-3 0  9994
2 69610  51.8826 327.9941 0006977 269.5479  90.4709 15.38058087  3489
KUIPER-00542            
1 69611U 26140V   26182.81112818  .00039187  00000+0  10332-2 0  9993
2 69611  51.8797 327.9767 0005961 251.8246 108.2093 15.38100691  3484
KUIPER-00543            
1 69612U 26140W   26182.82674854  .00039434  00000+0  10925-2 0  9991
2 69612  51.8789 328.0743 0007125 349.0781  11.0050 15.36555781  3486
KUIPER-00544            
1 69613U 26140X   26182.81413371  .00036069  00000+0  95709-3 0  9991
2 69613  51.8800 327.9949 0005695 271.9057  88.1278 15.37943283  3482
KUIPER-00546            
1 69614U 26140Y   26183.12302079  .00046698  00000+0  12040-2 0  9994
2 69614  51.8804 326.3207 0015015 214.8195 145.1811 15.38614326  3530
KUIPER-00547            
1 69615U 26140Z   26183.00002315  .00001886  00000+0  60919-4 0  9992
2 69615  51.8833 327.0083 0011161 237.8653 117.8388 15.37546929  1293
KUIPER-00549            
1 69616U 26140AA  26182.82182203  .00044711  00000+0  12145-2 0  9997
2 69616  51.8800 328.0447 0006659 324.4930  35.5613 15.37113311  3485
KUIPER-00550            
1 69617U 26140AB  26183.22593184 -.00196378  00000+0 -59103-2 0  9991
2 69617  51.8795 326.2492 0007280   4.8190 355.2865 15.34562546  3540
KUIPER-00551            
1 69618U 26140AC  26183.12616337  .00036929  00000+0  97779-3 0  9992
2 69618  51.8793 326.3410 0012298 227.8524 132.1419 15.37941697  3530
KUIPER-00554            
1 69619U 26140AD  26183.12967623  .00034818  00000+0  93098-3 0  9995
2 69619  51.8798 326.3633 0011511 237.9436 122.0434 15.37676150  3538
KUIPER-00555            
1 69620U 26140AE  26183.12759666  .00049185  00000+0  13007-2 0  9997
2 69620  51.8831 326.3544 0011142 228.9338 131.0687 15.37861755  3537
KUIPER-00556            
1 69621U 26140AF  26183.12880327  .00034878  00000+0  92173-3 0  9992
2 69621  51.8819 326.3598 0012364 217.0210 142.9925 15.38026857  3531
KUIPER-00557            
1 69622U 26140AG  26183.25003472  .00068184  00000+0  18349-2 0  9994
2 69622  51.8824 325.8098 0010153 245.6768  48.3280 15.37186745  2372
KUIPER-00560            
1 69623U 26140AH  26183.13281214  .00045594  00000+0  11799-2 0  9996
2 69623  51.8795 326.3832 0008653 251.5500 108.4547 15.38587362  3538
KUIPER-00561            
1 69624U 26140AJ  26183.13431653  .00045761  00000+0  11923-2 0  9996
2 69624  51.8830 326.3992 0008078 252.9377 107.0725 15.38380068  3531
KUIPER-00564            
1 69625U 26140AK  26183.13140669  .00034873  00000+0  90207-3 0  9996
2 69625  51.8821 326.3781 0009381 242.3182 117.6854 15.38717738  3531
KUIPER-00567            
1 69626U 26140AL  26182.80223734  .00033381  00000+0  87849-3 0  9996
2 69626  51.8783 327.9188 0012897 216.6865 143.3241 15.38170815  3484
KUIPER-00573            
1 69627U 26140AM  26183.13510576  .00030835  00000+0  83659-3 0  9993
2 69627  51.8796 326.3980 0010037 232.9250 127.0819 15.37301754  3538
