OBJECT_NAME,OBJECT_ID,EPOCH,MEAN_MOTION,ECCENTRICITY,INCLINATION,RA_OF_ASC_NODE,ARG_OF_PERICENTER,MEAN_ANOMALY,EPHEMERIS_TYPE,CLASSIFICATION_TYPE,NORAD_CAT_ID,ELEMENT_SET_NO,REV_AT_EPOCH,BSTAR,MEAN_MOTION_DOT,MEAN_MOTION_DDOT
KUIPER-00532,2026-140N,2026-07-02T06:00:02.999808,15.36486825,.00053017,51.8794,326.0185,347.8217,201.5613,0,U,69604,999,348,.22515226E-2,.81931E-3,0
KUIPER-00533,2026-140P,2026-07-01T19:29:25.656864,15.38059309,.00069829,51.8792,327.9826,275.1701,84.8489,0,U,69605,999,348,.95830589E-3,.36263E-3,0
KUIPER-00534,2026-140Q,2026-07-02T02:54:47.101536,15.38470182,.00140137,51.8845,326.3126,217.2174,142.7844,0,U,69606,999,353,.14664764E-2,.56745E-3,0
KUIPER-00537,2026-140R,2026-07-02T02:12:42.209280,15.35484432,.00092207,51.8815,326.8593,7.2207,352.8910,0,U,69607,999,352,-.19330874E-2,-.67566E-3,0
KUIPER-00538,2026-140S,2026-07-01T19:37:54.912288,15.37453513,.00053584,51.8831,328.0232,291.0772,68.9641,0,U,69608,999,348,.92807058E-3,.34398E-3,0
KUIPER-00540,2026-140T,2026-07-01T19:46:13.920672,15.36876077,.00058854,51.8810,328.0654,332.8128,27.2550,0,U,69609,999,348,.86616547E-3,.31469E-3,0
KUIPER-00541,2026-140U,2026-07-01T19:30:30.863808,15.38058087,.00069775,51.8826,327.9941,269.5479,90.4709,0,U,69610,999,348,.87846817E-3,.33193E-3,0
KUIPER-00542,2026-140V,2026-07-01T19:28:01.474752,15.38100691,.00059611,51.8797,327.9767,251.8246,108.2093,0,U,69611,999,348,.10331639E-2,.39187E-3,0
KUIPER-00543,2026-140W,2026-07-01T19:50:31.073856,15.36555781,.00071253,51.8789,328.0743,349.0781,11.0050,0,U,69612,999,348,.10925184E-2,.39434E-3,0
KUIPER-00544,2026-140X,2026-07-01T19:32:21.152544,15.37943283,.00056955,51.8800,327.9949,271.9057,88.1278,0,U,69613,999,348,.95708734E-3,.36069E-3,0
KUIPER-00546,2026-140Y,2026-07-02T02:57:08.996256,15.38614326,.00150157,51.8804,326.3207,214.8195,145.1811,0,U,69614,999,353,.12039605E-2,.46698E-3,0
KUIPER-00547,2026-140Z,2026-07-02T00:00:02.000160,15.37546929,.00111611,51.8833,327.0083,237.8653,117.8388,0,U,69615,999,129,.60919497E-4,.1886E-4,0
KUIPER-00549,2026-140AA,2026-07-01T19:43:25.423392,15.37113311,.00066596,51.8800,328.0447,324.4930,35.5613,0,U,69616,999,348,.12145376E-2,.44711E-3,0
KUIPER-00550,2026-140AB,2026-07-02T05:25:20.510976,15.34562546,.00072806,51.8795,326.2492,4.8190,355.2865,0,U,69617,999,354,-.59102632E-2,-.196378E-2,0
KUIPER-00551,2026-140AC,2026-07-02T03:01:40.515168,15.37941697,.00122988,51.8793,326.3410,227.8524,132.1419,0,U,69618,999,353,.97779234E-3,.36929E-3,0
KUIPER-00554,2026-140AD,2026-07-02T03:06:44.026272,15.37676150,.00115118,51.8798,326.3633,237.9436,122.0434,0,U,69619,999,353,.93098379E-3,.34818E-3,0
KUIPER-00555,2026-140AE,2026-07-02T03:03:44.351424,15.37861755,.00111426,51.8831,326.3544,228.9338,131.0687,0,U,69620,999,353,.13006955E-2,.49185E-3,0
KUIPER-00556,2026-140AF,2026-07-02T03:05:28.602528,15.38026857,.00123649,51.8819,326.3598,217.0210,142.9925,0,U,69621,999,353,.92172822E-3,.34878E-3,0
KUIPER-00557,2026-140AG,2026-07-02T06:00:02.999808,15.37186745,.00101531,51.8824,325.8098,245.6768,48.3280,0,U,69622,999,237,.1834909E-2,.68184E-3,0
KUIPER-00560,2026-140AH,2026-07-02T03:11:14.968896,15.38587362,.00086537,51.8795,326.3832,251.5500,108.4547,0,U,69623,999,353,.11798532E-2,.45594E-3,0
KUIPER-00561,2026-140AJ,2026-07-02T03:13:24.948192,15.38380068,.00080784,51.8830,326.3992,252.9377,107.0725,0,U,69624,999,353,.11923064E-2,.45761E-3,0
KUIPER-00564,2026-140AK,2026-07-02T03:09:13.538016,15.38717738,.00093811,51.8821,326.3781,242.3182,117.6854,0,U,69625,999,353,.90206824E-3,.34873E-3,0
KUIPER-00567,2026-140AL,2026-07-01T19:15:13.306176,15.38170815,.00128975,51.8783,327.9188,216.6865,143.3241,0,U,69626,999,348,.87848569E-3,.33381E-3,0
KUIPER-00573,2026-140AM,2026-07-02T03:14:33.137664,15.37301754,.00100377,51.8796,326.3980,232.9250,127.0819,0,U,69627,999,353,.83659286E-3,.30835E-3,0
